[{"OBJECT_NAME":"STARLINK-5467","OBJECT_ID":"2023-021AJ","EPOCH":"2026-03-09T15:44:49.737408","MEAN_MOTION":14.98299745,"ECCENTRICITY":0.00034055,"INCLINATION":70.0014,"RA_OF_ASC_NODE":164.3842,"ARG_OF_PERICENTER":269.2197,"MEAN_ANOMALY":90.8572,"EPHEMERIS_TYPE":0,"CLASSIFICATION_TYPE":"U","NORAD_CAT_ID":55660,"ELEMENT_SET_NO":999,"REV_AT_EPOCH":16928,"BSTAR":0.00024740261,"MEAN_MOTION_DOT":2.858e-5,"MEAN_MOTION_DDOT":0},{"OBJECT_NAME":"NIGERIASAT-1","OBJECT_ID":"2003-042C","EPOCH":"2026-03-09T23:18:28.284480","MEAN_MOTION":14.90021828,"ECCENTRICITY":0.00412391,"INCLINATION":98.0062,"RA_OF_ASC_NODE":259.4679,"ARG_OF_PERICENTER":255.6174,"MEAN_ANOMALY":104.0464,"EPHEMERIS_TYPE":0,"CLASSIFICATION_TYPE":"U","NORAD_CAT_ID":27941,"ELEMENT_SET_NO":999,"REV_AT_EPOCH":20905,"BSTAR":0.0001905973,"MEAN_MOTION_DOT":1.807e-5,"MEAN_MOTION_DDOT":0}]
